[
  {
    "OBJECT_NAME": "STARLINK-32502",
    "OBJECT_ID": "24222C",
    "EPOCH": "2025-11-10T17:24:18.383328",
    "MEAN_MOTION": 15.27612291,
    "ECCENTRICITY": 0.0001601,
    "INCLINATION": 43.0004,
    "RA_OF_ASC_NODE": 88.1399,
    "ARG_OF_PERICENTER": 268.3997,
    "MEAN_ANOMALY": 91.6671,
    "EPHEMERIS_TYPE": 0,
    "CLASSIFICATION_TYPE": "U",
    "NORAD_CAT_ID": 62116,
    "ELEMENT_SET_NO": 999,
    "REV_AT_EPOCH": 5461,
    "BSTAR": 0.0012792,
    "MEAN_MOTION_DOT": 0.00035141,
    "MEAN_MOTION_DDOT": 0.0,
    "TLE_LINE1": "1 62116U 24222C   25314.72521277  .00035141  00000+0  12792-2 0  9992",
    "TLE_LINE2": "2 62116  43.0004  88.1399 0001601 268.3997  91.6671 15.27612291 54611",
    "COMMENT": "Grouped by shell and plane from TLE"
  },
  {
    "OBJECT_NAME": "STARLINK-32521",
    "OBJECT_ID": "24222D",
    "EPOCH": "2025-11-10T15:30:29.779200",
    "MEAN_MOTION": 15.27616659,
    "ECCENTRICITY": 0.0002585,
    "INCLINATION": 43.0029,
    "RA_OF_ASC_NODE": 84.8332,
    "ARG_OF_PERICENTER": 277.9122,
    "MEAN_ANOMALY": 82.1436,
    "EPHEMERIS_TYPE": 0,
    "CLASSIFICATION_TYPE": "U",
    "NORAD_CAT_ID": 62117,
    "ELEMENT_SET_NO": 999,
    "REV_AT_EPOCH": 5458,
    "BSTAR": 0.0012137,
    "MEAN_MOTION_DOT": 0.00033326,
    "MEAN_MOTION_DDOT": 0.0,
    "TLE_LINE1": "1 62117U 24222D   25314.64617800  .00033326  00000+0  12137-2 0  9998",
    "TLE_LINE2": "2 62117  43.0029  84.8332 0002585 277.9122  82.1436 15.27616659 54589",
    "COMMENT": "Grouped by shell and plane from TLE"
  },
  {
    "OBJECT_NAME": "STARLINK-32549",
    "OBJECT_ID": "24222E",
    "EPOCH": "2025-11-11T01:57:25.954560",
    "MEAN_MOTION": 15.27617399,
    "ECCENTRICITY": 0.0001737,
    "INCLINATION": 43.002,
    "RA_OF_ASC_NODE": 85.6624,
    "ARG_OF_PERICENTER": 290.3388,
    "MEAN_ANOMALY": 69.7277,
    "EPHEMERIS_TYPE": 0,
    "CLASSIFICATION_TYPE": "U",
    "NORAD_CAT_ID": 62118,
    "ELEMENT_SET_NO": 999,
    "REV_AT_EPOCH": 5467,
    "BSTAR": 0.0012531999999999999,
    "MEAN_MOTION_DOT": 0.00034425,
    "MEAN_MOTION_DDOT": 0.0,
    "TLE_LINE1": "1 62118U 24222E   25315.08155040  .00034425  00000+0  12532-2 0  9991",
    "TLE_LINE2": "2 62118  43.0020  85.6624 0001737 290.3388  69.7277 15.27617399 54671",
    "COMMENT": "Grouped by shell and plane from TLE"
  },
  {
    "OBJECT_NAME": "STARLINK-32535",
    "OBJECT_ID": "24222F",
    "EPOCH": "2025-11-11T01:26:53.534112",
    "MEAN_MOTION": 15.27591152,
    "ECCENTRICITY": 5.86e-05,
    "INCLINATION": 43.0005,
    "RA_OF_ASC_NODE": 82.9004,
    "ARG_OF_PERICENTER": 298.0956,
    "MEAN_ANOMALY": 61.9836,
    "EPHEMERIS_TYPE": 0,
    "CLASSIFICATION_TYPE": "U",
    "NORAD_CAT_ID": 62119,
    "ELEMENT_SET_NO": 999,
    "REV_AT_EPOCH": 5465,
    "BSTAR": 0.0020451,
    "MEAN_MOTION_DOT": 0.00056465,
    "MEAN_MOTION_DDOT": 0.0,
    "TLE_LINE1": "1 62119U 24222F   25315.06034183  .00056465  00000+0  20451-2 0  9991",
    "TLE_LINE2": "2 62119  43.0005  82.9004 0000586 298.0956  61.9836 15.27591152 54655",
    "COMMENT": "Grouped by shell and plane from TLE"
  },
  {
    "OBJECT_NAME": "STARLINK-32548",
    "OBJECT_ID": "24222G",
    "EPOCH": "2025-11-11T01:35:25.973376",
    "MEAN_MOTION": 15.27620935,
    "ECCENTRICITY": 0.0003195,
    "INCLINATION": 43.005,
    "RA_OF_ASC_NODE": 86.3994,
    "ARG_OF_PERICENTER": 276.9758,
    "MEAN_ANOMALY": 83.073,
    "EPHEMERIS_TYPE": 0,
    "CLASSIFICATION_TYPE": "U",
    "NORAD_CAT_ID": 62120,
    "ELEMENT_SET_NO": 999,
    "REV_AT_EPOCH": 5461,
    "BSTAR": 0.0011570999999999999,
    "MEAN_MOTION_DOT": 0.00031758,
    "MEAN_MOTION_DDOT": 0.0,
    "TLE_LINE1": "1 62120U 24222G   25315.06627284  .00031758  00000+0  11571-2 0  9994",
    "TLE_LINE2": "2 62120  43.0050  86.3994 0003195 276.9758  83.0730 15.27620935 54613",
    "COMMENT": "Grouped by shell and plane from TLE"
  },
  {
    "OBJECT_NAME": "STARLINK-32525",
    "OBJECT_ID": "24222H",
    "EPOCH": "2025-11-11T02:06:41.276736",
    "MEAN_MOTION": 15.27613566,
    "ECCENTRICITY": 0.000205,
    "INCLINATION": 43.0016,
    "RA_OF_ASC_NODE": 85.7054,
    "ARG_OF_PERICENTER": 288.7239,
    "MEAN_ANOMALY": 71.339,
    "EPHEMERIS_TYPE": 0,
    "CLASSIFICATION_TYPE": "U",
    "NORAD_CAT_ID": 62121,
    "ELEMENT_SET_NO": 999,
    "REV_AT_EPOCH": 5462,
    "BSTAR": 0.0015482000000000002,
    "MEAN_MOTION_DOT": 0.00042631,
    "MEAN_MOTION_DDOT": 0.0,
    "TLE_LINE1": "1 62121U 24222H   25315.08797774  .00042631  00000+0  15482-2 0  9996",
    "TLE_LINE2": "2 62121  43.0016  85.7054 0002050 288.7239  71.3390 15.27613566 54625",
    "COMMENT": "Grouped by shell and plane from TLE"
  },
  {
    "OBJECT_NAME": "STARLINK-32628",
    "OBJECT_ID": "24222J",
    "EPOCH": "2025-11-10T15:33:29.777184",
    "MEAN_MOTION": 15.27603705,
    "ECCENTRICITY": 0.0002168,
    "INCLINATION": 43.0013,
    "RA_OF_ASC_NODE": 88.4204,
    "ARG_OF_PERICENTER": 275.5013,
    "MEAN_ANOMALY": 84.5591,
    "EPHEMERIS_TYPE": 0,
    "CLASSIFICATION_TYPE": "U",
    "NORAD_CAT_ID": 62122,
    "ELEMENT_SET_NO": 999,
    "REV_AT_EPOCH": 5471,
    "BSTAR": 0.0011929,
    "MEAN_MOTION_DOT": 0.00032736,
    "MEAN_MOTION_DDOT": 0.0,
    "TLE_LINE1": "1 62122U 24222J   25314.64826131  .00032736  00000+0  11929-2 0  9995",
    "TLE_LINE2": "2 62122  43.0013  88.4204 0002168 275.5013  84.5591 15.27603705 54717",
    "COMMENT": "Grouped by shell and plane from TLE"
  },
  {
    "OBJECT_NAME": "STARLINK-32626",
    "OBJECT_ID": "24222K",
    "EPOCH": "2025-11-10T17:35:24.471168",
    "MEAN_MOTION": 15.27605691,
    "ECCENTRICITY": 0.0001605,
    "INCLINATION": 43.0012,
    "RA_OF_ASC_NODE": 88.1976,
    "ARG_OF_PERICENTER": 272.3046,
    "MEAN_ANOMALY": 87.7622,
    "EPHEMERIS_TYPE": 0,
    "CLASSIFICATION_TYPE": "U",
    "NORAD_CAT_ID": 62123,
    "ELEMENT_SET_NO": 999,
    "REV_AT_EPOCH": 5455,
    "BSTAR": 0.0011483,
    "MEAN_MOTION_DOT": 0.00031497,
    "MEAN_MOTION_DDOT": 0.0,
    "TLE_LINE1": "1 62123U 24222K   25314.73292212  .00031497  00000+0  11483-2 0  9991",
    "TLE_LINE2": "2 62123  43.0012  88.1976 0001605 272.3046  87.7622 15.27605691 54554",
    "COMMENT": "Grouped by shell and plane from TLE"
  },
  {
    "OBJECT_NAME": "STARLINK-32608",
    "OBJECT_ID": "24222L",
    "EPOCH": "2025-11-11T02:23:19.766976",
    "MEAN_MOTION": 15.27625394,
    "ECCENTRICITY": 0.0004034,
    "INCLINATION": 43.0046,
    "RA_OF_ASC_NODE": 85.7881,
    "ARG_OF_PERICENTER": 275.498,
    "MEAN_ANOMALY": 84.5411,
    "EPHEMERIS_TYPE": 0,
    "CLASSIFICATION_TYPE": "U",
    "NORAD_CAT_ID": 62124,
    "ELEMENT_SET_NO": 999,
    "REV_AT_EPOCH": 5460,
    "BSTAR": 0.0013092000000000002,
    "MEAN_MOTION_DOT": 0.00035997,
    "MEAN_MOTION_DDOT": 0.0,
    "TLE_LINE1": "1 62124U 24222L   25315.09953434  .00035997  00000+0  13092-2 0  9999",
    "TLE_LINE2": "2 62124  43.0046  85.7881 0004034 275.4980  84.5411 15.27625394 54609",
    "COMMENT": "Grouped by shell and plane from TLE"
  },
  {
    "OBJECT_NAME": "STARLINK-32488",
    "OBJECT_ID": "24222M",
    "EPOCH": "2025-11-10T16:16:03.232416",
    "MEAN_MOTION": 15.27603071,
    "ECCENTRICITY": 0.0001938,
    "INCLINATION": 43.0008,
    "RA_OF_ASC_NODE": 88.6441,
    "ARG_OF_PERICENTER": 276.629,
    "MEAN_ANOMALY": 83.4341,
    "EPHEMERIS_TYPE": 0,
    "CLASSIFICATION_TYPE": "U",
    "NORAD_CAT_ID": 62125,
    "ELEMENT_SET_NO": 999,
    "REV_AT_EPOCH": 5444,
    "BSTAR": 0.0014915999999999998,
    "MEAN_MOTION_DOT": 0.00041042,
    "MEAN_MOTION_DDOT": 0.0,
    "TLE_LINE1": "1 62125U 24222M   25314.67781519  .00041042  00000+0  14916-2 0  9990",
    "TLE_LINE2": "2 62125  43.0008  88.6441 0001938 276.6290  83.4341 15.27603071 54449",
    "COMMENT": "Grouped by shell and plane from TLE"
  },
  {
    "OBJECT_NAME": "STARLINK-32490",
    "OBJECT_ID": "24222N",
    "EPOCH": "2025-11-11T02:01:08.084640",
    "MEAN_MOTION": 15.2760988,
    "ECCENTRICITY": 0.0001251,
    "INCLINATION": 43.0023,
    "RA_OF_ASC_NODE": 85.6771,
    "ARG_OF_PERICENTER": 278.981,
    "MEAN_ANOMALY": 81.09,
    "EPHEMERIS_TYPE": 0,
    "CLASSIFICATION_TYPE": "U",
    "NORAD_CAT_ID": 62126,
    "ELEMENT_SET_NO": 999,
    "REV_AT_EPOCH": 5461,
    "BSTAR": 0.0014057,
    "MEAN_MOTION_DOT": 0.00038657,
    "MEAN_MOTION_DDOT": 0.0,
    "TLE_LINE1": "1 62126U 24222N   25315.08412135  .00038657  00000+0  14057-2 0  9996",
    "TLE_LINE2": "2 62126  43.0023  85.6771 0001251 278.9810  81.0900 15.27609880 54619",
    "COMMENT": "Grouped by shell and plane from TLE"
  },
  {
    "OBJECT_NAME": "STARLINK-32568",
    "OBJECT_ID": "24222Q",
    "EPOCH": "2025-11-11T01:20:39.405696",
    "MEAN_MOTION": 15.2757654,
    "ECCENTRICITY": 0.0001543,
    "INCLINATION": 42.9937,
    "RA_OF_ASC_NODE": 86.3204,
    "ARG_OF_PERICENTER": 56.4702,
    "MEAN_ANOMALY": 303.6297,
    "EPHEMERIS_TYPE": 0,
    "CLASSIFICATION_TYPE": "U",
    "NORAD_CAT_ID": 62128,
    "ELEMENT_SET_NO": 999,
    "REV_AT_EPOCH": 5434,
    "BSTAR": 0.0021468999999999998,
    "MEAN_MOTION_DOT": 0.00059286,
    "MEAN_MOTION_DDOT": 0.0,
    "TLE_LINE1": "1 62128U 24222Q   25315.05601164  .00059286  00000+0  21469-2 0  9993",
    "TLE_LINE2": "2 62128  42.9937  86.3204 0001543  56.4702 303.6297 15.27576540 54343",
    "COMMENT": "Grouped by shell and plane from TLE"
  },
  {
    "OBJECT_NAME": "STARLINK-32462",
    "OBJECT_ID": "24222R",
    "EPOCH": "2025-11-11T01:17:37.701312",
    "MEAN_MOTION": 15.27615862,
    "ECCENTRICITY": 0.0002974,
    "INCLINATION": 43.0024,
    "RA_OF_ASC_NODE": 82.8484,
    "ARG_OF_PERICENTER": 279.6369,
    "MEAN_ANOMALY": 80.4147,
    "EPHEMERIS_TYPE": 0,
    "CLASSIFICATION_TYPE": "U",
    "NORAD_CAT_ID": 62129,
    "ELEMENT_SET_NO": 999,
    "REV_AT_EPOCH": 5464,
    "BSTAR": 0.0010302,
    "MEAN_MOTION_DOT": 0.00028228,
    "MEAN_MOTION_DDOT": 0.0,
    "TLE_LINE1": "1 62129U 24222R   25315.05390858  .00028228  00000+0  10302-2 0  9995",
    "TLE_LINE2": "2 62129  43.0024  82.8484 0002974 279.6369  80.4147 15.27615862 54649",
    "COMMENT": "Grouped by shell and plane from TLE"
  }
]